{
  "type": "FeatureCollection",
  "features": [
    {
      "type": "Feature",
      "properties": {
        "norad_id": 34022,
        "name": "COSMOS 2251 DEB",
        "group": "cosmos-2251-debris",
        "lat": -73.97314720636564,
        "lon": 158.8460090144702,
        "alt_km": 755.1825167641455,
        "timestamp": "2025-12-27T15:27:11.587879+00:00",
        "meta_object_name": "COSMOS 2251 DEB",
        "meta_object_id": "1993-036HH",
        "meta_epoch": "2025-12-27T03:13:01.977888",
        "meta_mean_motion": 14.3898372,
        "meta_eccentricity": 0.00231154,
        "meta_inclination": 74.0533,
        "meta_ra_of_asc_node": 244.2726,
        "meta_arg_of_pericenter": 306.9535,
        "meta_mean_anomaly": 204.6734,
        "meta_ephemeris_type": 0,
        "meta_classification_type": "U",
        "meta_norad_cat_id": 34022,
        "meta_element_set_no": 999,
        "meta_rev_at_epoch": 88402,
        "meta_bstar": 0.0002279964,
        "meta_mean_motion_dot": 6.79e-06,
        "meta_mean_motion_ddot": 0,
        "tle_line1": "1 34022U 93036HH  25361.13405067  .00000679  00000+0  22800-3 0  9991",
        "tle_line2": "2 34022  74.0533 244.2726 0023115 306.9535 204.6734 14.38983720884028"
      },
      "geometry": {
        "type": "Point",
        "coordinates": [
          158.8460090144702,
          -73.97314720636564
        ]
      }
    },
    {
      "type": "Feature",
      "properties": {
        "norad_id": 34023,
        "name": "COSMOS 2251 DEB",
        "group": "cosmos-2251-debris",
        "lat": -72.64201088299166,
        "lon": 157.7362872246014,
        "alt_km": 753.2628769023659,
        "timestamp": "2025-12-27T15:27:11.587890+00:00",
        "meta_object_name": "COSMOS 2251 DEB",
        "meta_object_id": "1993-036HJ",
        "meta_epoch": "2025-12-26T21:35:02.634720",
        "meta_mean_motion": 14.40588126,
        "meta_eccentricity": 0.0018956,
        "meta_inclination": 74.0235,
        "meta_ra_of_asc_node": 225.5388,
        "meta_arg_of_pericenter": 319.2916,
        "meta_mean_anomaly": 57.961,
        "meta_ephemeris_type": 0,
        "meta_classification_type": "U",
        "meta_norad_cat_id": 34023,
        "meta_element_set_no": 999,
        "meta_rev_at_epoch": 88418,
        "meta_bstar": 0.000299,
        "meta_mean_motion_dot": 9.28e-06,
        "meta_mean_motion_ddot": 0,
        "tle_line1": "1 34023U 93036HJ  25360.89933605  .00000928  00000+0  29900-3 0  9993",
        "tle_line2": "2 34023  74.0235 225.5388 0018956 319.2916  57.9610 14.40588126884184"
      },
      "geometry": {
        "type": "Point",
        "coordinates": [
          157.7362872246014,
          -72.64201088299166
        ]
      }
    },
    {
      "type": "Feature",
      "properties": {
        "norad_id": 34024,
        "name": "COSMOS 2251 DEB",
        "group": "cosmos-2251-debris",
        "lat": 8.876659012890142,
        "lon": -68.7632027885042,
        "alt_km": 762.0890289212202,
        "timestamp": "2025-12-27T15:27:11.587900+00:00",
        "meta_object_name": "COSMOS 2251 DEB",
        "meta_object_id": "1993-036HK",
        "meta_epoch": "2025-12-27T05:55:06.197664",
        "meta_mean_motion": 14.35412785,
        "meta_eccentricity": 0.00216485,
        "meta_inclination": 74.0471,
        "meta_ra_of_asc_node": 289.4042,
        "meta_arg_of_pericenter": 337.1125,
        "meta_mean_anomaly": 139.9629,
        "meta_ephemeris_type": 0,
        "meta_classification_type": "U",
        "meta_norad_cat_id": 34024,
        "meta_element_set_no": 999,
        "meta_rev_at_epoch": 88232,
        "meta_bstar": 0.00022130097,
        "meta_mean_motion_dot": 6.11e-06,
        "meta_mean_motion_ddot": 0,
        "tle_line1": "1 34024U 93036HK  25361.24659951  .00000611  00000+0  22130-3 0  9990",
        "tle_line2": "2 34024  74.0471 289.4042 0021648 337.1125 139.9629 14.35412785882322"
      },
      "geometry": {
        "type": "Point",
        "coordinates": [
          -68.7632027885042,
          8.876659012890142
        ]
      }
    },
    {
      "type": "Feature",
      "properties": {
        "norad_id": 34026,
        "name": "COSMOS 2251 DEB",
        "group": "cosmos-2251-debris",
        "lat": 72.96038112789805,
        "lon": 60.59574028563523,
        "alt_km": 977.574977654851,
        "timestamp": "2025-12-27T15:27:11.587910+00:00",
        "meta_object_name": "COSMOS 2251 DEB",
        "meta_object_id": "1993-036HM",
        "meta_epoch": "2025-12-27T06:32:17.074176",
        "meta_mean_motion": 13.65325964,
        "meta_eccentricity": 0.03494222,
        "meta_inclination": 73.7669,
        "meta_ra_of_asc_node": 313.1187,
        "meta_arg_of_pericenter": 180.8853,
        "meta_mean_anomaly": 253.1693,
        "meta_ephemeris_type": 0,
        "meta_classification_type": "U",
        "meta_norad_cat_id": 34026,
        "meta_element_set_no": 999,
        "meta_rev_at_epoch": 83730,
        "meta_bstar": 0.00050449815,
        "meta_mean_motion_dot": 6e-06,
        "meta_mean_motion_ddot": 0,
        "tle_line1": "1 34026U 93036HM  25361.27241984  .00000600  00000+0  50450-3 0  9992",
        "tle_line2": "2 34026  73.7669 313.1187 0349422 180.8853 253.1693 13.65325964837300"
      },
      "geometry": {
        "type": "Point",
        "coordinates": [
          60.59574028563523,
          72.96038112789805
        ]
      }
    },
    {
      "type": "Feature",
      "properties": {
        "norad_id": 34028,
        "name": "COSMOS 2251 DEB",
        "group": "cosmos-2251-debris",
        "lat": -58.93962704862013,
        "lon": 173.08640325128647,
        "alt_km": 1510.4305535817675,
        "timestamp": "2025-12-27T15:27:11.587927+00:00",
        "meta_object_name": "COSMOS 2251 DEB",
        "meta_object_id": "1993-036HP",
        "meta_epoch": "2025-12-27T03:26:12.566400",
        "meta_mean_motion": 13.20635761,
        "meta_eccentricity": 0.05434724,
        "meta_inclination": 73.884,
        "meta_ra_of_asc_node": 325.1679,
        "meta_arg_of_pericenter": 100.5363,
        "meta_mean_anomaly": 279.1161,
        "meta_ephemeris_type": 0,
        "meta_classification_type": "U",
        "meta_norad_cat_id": 34028,
        "meta_element_set_no": 999,
        "meta_rev_at_epoch": 81198,
        "meta_bstar": 0.00068196706,
        "meta_mean_motion_dot": 5.86e-06,
        "meta_mean_motion_ddot": 0,
        "tle_line1": "1 34028U 93036HP  25361.14320100  .00000586  00000+0  68197-3 0  9998",
        "tle_line2": "2 34028  73.8840 325.1679 0543472 100.5363 279.1161 13.20635761811983"
      },
      "geometry": {
        "type": "Point",
        "coordinates": [
          173.08640325128647,
          -58.93962704862013
        ]
      }
    },
    {
      "type": "Feature",
      "properties": {
        "norad_id": 34031,
        "name": "COSMOS 2251 DEB",
        "group": "cosmos-2251-debris",
        "lat": 58.26961446712813,
        "lon": 134.86164464480478,
        "alt_km": 703.1749744377157,
        "timestamp": "2025-12-27T15:27:11.587949+00:00",
        "meta_object_name": "COSMOS 2251 DEB",
        "meta_object_id": "1993-036HS",
        "meta_epoch": "2025-12-27T07:02:49.888608",
        "meta_mean_motion": 14.59858256,
        "meta_eccentricity": 0.00227745,
        "meta_inclination": 74.013,
        "meta_ra_of_asc_node": 107.9083,
        "meta_arg_of_pericenter": 227.7004,
        "meta_mean_anomaly": 154.6555,
        "meta_ephemeris_type": 0,
        "meta_classification_type": "U",
        "meta_norad_cat_id": 34031,
        "meta_element_set_no": 999,
        "meta_rev_at_epoch": 88778,
        "meta_bstar": 0.0014485177,
        "meta_mean_motion_dot": 6.932e-05,
        "meta_mean_motion_ddot": 0,
        "tle_line1": "1 34031U 93036HS  25361.29363297  .00006932  00000+0  14485-2 0  9993",
        "tle_line2": "2 34031  74.0130 107.9083 0022774 227.7004 154.6555 14.59858256887782"
      },
      "geometry": {
        "type": "Point",
        "coordinates": [
          134.86164464480478,
          58.26961446712813
        ]
      }
    },
    {
      "type": "Feature",
      "properties": {
        "norad_id": 34035,
        "name": "COSMOS 2251 DEB",
        "group": "cosmos-2251-debris",
        "lat": 9.117905063114542,
        "lon": 138.48026604579468,
        "alt_km": 747.675210434656,
        "timestamp": "2025-12-27T15:27:11.587961+00:00",
        "meta_object_name": "COSMOS 2251 DEB",
        "meta_object_id": "1993-036HW",
        "meta_epoch": "2025-12-26T17:26:24.099648",
        "meta_mean_motion": 14.52128892,
        "meta_eccentricity": 0.0045304,
        "meta_inclination": 74.0661,
        "meta_ra_of_asc_node": 322.8327,
        "meta_arg_of_pericenter": 321.8105,
        "meta_mean_anomaly": 95.8938,
        "meta_ephemeris_type": 0,
        "meta_classification_type": "U",
        "meta_norad_cat_id": 34035,
        "meta_element_set_no": 999,
        "meta_rev_at_epoch": 88169,
        "meta_bstar": 0.0020010807,
        "meta_mean_motion_dot": 8.197e-05,
        "meta_mean_motion_ddot": 0,
        "tle_line1": "1 34035U 93036HW  25360.72666782  .00008197  00000+0  20011-2 0  9996",
        "tle_line2": "2 34035  74.0661 322.8327 0045304 321.8105  95.8938 14.52128892881690"
      },
      "geometry": {
        "type": "Point",
        "coordinates": [
          138.48026604579468,
          9.117905063114542
        ]
      }
    }
  ]
}